{
  "type": "FeatureCollection",
  "features": [
    {
      "type": "Feature",
      "properties": {
        "norad_id": 2807,
        "name": "OPS 7218 (TRANSIT 16)",
        "group": "nnss",
        "lat": -18.278486433290237,
        "lon": 174.4006408443941,
        "alt_km": 1067.0044078758037,
        "timestamp": "2025-12-04T09:47:37.789616+00:00",
        "meta_object_name": "OPS 7218 (TRANSIT 16)",
        "meta_object_id": "1967-048A",
        "meta_epoch": "2025-12-04T02:00:07.320384",
        "meta_mean_motion": 13.50719782,
        "meta_eccentricity": 0.0021506,
        "meta_inclination": 89.6734,
        "meta_ra_of_asc_node": 354.3034,
        "meta_arg_of_pericenter": 137.388,
        "meta_mean_anomaly": 282.8204,
        "meta_ephemeris_type": 0,
        "meta_classification_type": "U",
        "meta_norad_cat_id": 2807,
        "meta_element_set_no": 999,
        "meta_rev_at_epoch": 88159,
        "meta_bstar": 0.0002602,
        "meta_mean_motion_dot": 1.78e-06,
        "meta_mean_motion_ddot": 0,
        "tle_line1": "1 02807U 67048A   25338.08341806  .00000178  00000+0  26020-3 0  9991",
        "tle_line2": "2 02807  89.6734 354.3034 0021506 137.3880 282.8204 13.50719782881592"
      },
      "geometry": {
        "type": "Point",
        "coordinates": [
          174.4006408443941,
          -18.278486433290237
        ]
      }
    },
    {
      "type": "Feature",
      "properties": {
        "norad_id": 2965,
        "name": "OPS 4947 (TRANSIT 17)",
        "group": "nnss",
        "lat": -0.22239861002678427,
        "lon": -154.92618870368392,
        "alt_km": 1056.2319022598567,
        "timestamp": "2025-12-04T09:47:37.789639+00:00",
        "meta_object_name": "OPS 4947 (TRANSIT 17)",
        "meta_object_id": "1967-092A",
        "meta_epoch": "2025-12-03T15:45:35.885376",
        "meta_mean_motion": 13.53450115,
        "meta_eccentricity": 0.00457844,
        "meta_inclination": 89.2506,
        "meta_ra_of_asc_node": 25.128,
        "meta_arg_of_pericenter": 261.8094,
        "meta_mean_anomaly": 219.8061,
        "meta_ephemeris_type": 0,
        "meta_classification_type": "U",
        "meta_norad_cat_id": 2965,
        "meta_element_set_no": 999,
        "meta_rev_at_epoch": 86974,
        "meta_bstar": 0.00024972431,
        "meta_mean_motion_dot": 1.8e-06,
        "meta_mean_motion_ddot": 0,
        "tle_line1": "1 02965U 67092A   25337.65666534  .00000180  00000+0  24972-3 0  9992",
        "tle_line2": "2 02965  89.2506  25.1280 0045784 261.8094 219.8061 13.53450115869749"
      },
      "geometry": {
        "type": "Point",
        "coordinates": [
          -154.92618870368392,
          -0.22239861002678427
        ]
      }
    },
    {
      "type": "Feature",
      "properties": {
        "norad_id": 3133,
        "name": "OPS 7034 (TRANSIT 18)",
        "group": "nnss",
        "lat": 26.09034331300567,
        "lon": -86.39763716724114,
        "alt_km": 1118.6220750606353,
        "timestamp": "2025-12-04T09:47:37.789653+00:00",
        "meta_object_name": "OPS 7034 (TRANSIT 18)",
        "meta_object_id": "1968-012A",
        "meta_epoch": "2025-12-03T21:33:02.442816",
        "meta_mean_motion": 13.51562734,
        "meta_eccentricity": 0.00730348,
        "meta_inclination": 90.027,
        "meta_ra_of_asc_node": 273.6142,
        "meta_arg_of_pericenter": 194.8777,
        "meta_mean_anomaly": 230.8678,
        "meta_ephemeris_type": 0,
        "meta_classification_type": "U",
        "meta_norad_cat_id": 3133,
        "meta_element_set_no": 999,
        "meta_rev_at_epoch": 56799,
        "meta_bstar": 0.00021575464,
        "meta_mean_motion_dot": 1.52e-06,
        "meta_mean_motion_ddot": 0,
        "tle_line1": "1 03133U 68012A   25337.89794494  .00000152  00000+0  21575-3 0  9991",
        "tle_line2": "2 03133  90.0270 273.6142 0073034 194.8777 230.8678 13.51562734567992"
      },
      "geometry": {
        "type": "Point",
        "coordinates": [
          -86.39763716724114,
          26.09034331300567
        ]
      }
    },
    {
      "type": "Feature",
      "properties": {
        "norad_id": 4507,
        "name": "NNSS 19 (TRANSIT 19)",
        "group": "nnss",
        "lat": 6.7180373520117485,
        "lon": -125.47270777451853,
        "alt_km": 984.841238428392,
        "timestamp": "2025-12-04T09:47:37.789664+00:00",
        "meta_object_name": "NNSS 19 (TRANSIT 19)",
        "meta_object_id": "1970-067A",
        "meta_epoch": "2025-12-03T23:05:56.276160",
        "meta_mean_motion": 13.51311536,
        "meta_eccentricity": 0.0171147,
        "meta_inclination": 90.0056,
        "meta_ra_of_asc_node": 234.5277,
        "meta_arg_of_pericenter": 318.9954,
        "meta_mean_anomaly": 39.8432,
        "meta_ephemeris_type": 0,
        "meta_classification_type": "U",
        "meta_norad_cat_id": 4507,
        "meta_element_set_no": 999,
        "meta_rev_at_epoch": 72103,
        "meta_bstar": 0.00032729,
        "meta_mean_motion_dot": 2.41e-06,
        "meta_mean_motion_ddot": 0,
        "tle_line1": "1 04507U 70067A   25337.96245690  .00000241  00000+0  32729-3 0  9999",
        "tle_line2": "2 04507  90.0056 234.5277 0171147 318.9954  39.8432 13.51311536721039"
      },
      "geometry": {
        "type": "Point",
        "coordinates": [
          -125.47270777451853,
          6.7180373520117485
        ]
      }
    },
    {
      "type": "Feature",
      "properties": {
        "norad_id": 6909,
        "name": "NNSS 20 (TRANSIT 20)",
        "group": "nnss",
        "lat": -17.351311221947423,
        "lon": 75.22420988125934,
        "alt_km": 1006.1961679735905,
        "timestamp": "2025-12-04T09:47:37.789675+00:00",
        "meta_object_name": "NNSS 20 (TRANSIT 20)",
        "meta_object_id": "1973-081A",
        "meta_epoch": "2025-12-03T18:50:37.207968",
        "meta_mean_motion": 13.71427987,
        "meta_eccentricity": 0.01564724,
        "meta_inclination": 89.8557,
        "meta_ra_of_asc_node": 255.1885,
        "meta_arg_of_pericenter": 104.8334,
        "meta_mean_anomaly": 257.022,
        "meta_ephemeris_type": 0,
        "meta_classification_type": "U",
        "meta_norad_cat_id": 6909,
        "meta_element_set_no": 999,
        "meta_rev_at_epoch": 80238,
        "meta_bstar": 0.00028938661,
        "meta_mean_motion_dot": 2.96e-06,
        "meta_mean_motion_ddot": 0,
        "tle_line1": "1 06909U 73081A   25337.78515287  .00000296  00000+0  28939-3 0  9996",
        "tle_line2": "2 06909  89.8557 255.1885 0156472 104.8334 257.0220 13.71427987802388"
      },
      "geometry": {
        "type": "Point",
        "coordinates": [
          75.22420988125934,
          -17.351311221947423
        ]
      }
    },
    {
      "type": "Feature",
      "properties": {
        "norad_id": 10457,
        "name": "TRANSAT",
        "group": "nnss",
        "lat": 81.11235828484621,
        "lon": 81.14354097122082,
        "alt_km": 1081.313235241947,
        "timestamp": "2025-12-04T09:47:37.789686+00:00",
        "meta_object_name": "TRANSAT",
        "meta_object_id": "1977-106A",
        "meta_epoch": "2025-12-03T19:44:22.543296",
        "meta_mean_motion": 13.48941362,
        "meta_eccentricity": 0.00245874,
        "meta_inclination": 89.6482,
        "meta_ra_of_asc_node": 78.9126,
        "meta_arg_of_pericenter": 215.8171,
        "meta_mean_anomaly": 263.4628,
        "meta_ephemeris_type": 0,
        "meta_classification_type": "U",
        "meta_norad_cat_id": 10457,
        "meta_element_set_no": 999,
        "meta_rev_at_epoch": 36623,
        "meta_bstar": 0.00015959191,
        "meta_mean_motion_dot": 1.1e-06,
        "meta_mean_motion_ddot": 0,
        "tle_line1": "1 10457U 77106A   25337.82248314  .00000110  00000+0  15959-3 0  9993",
        "tle_line2": "2 10457  89.6482  78.9126 0024587 215.8171 263.4628 13.48941362366232"
      },
      "geometry": {
        "type": "Point",
        "coordinates": [
          81.14354097122082,
          81.11235828484621
        ]
      }
    },
    {
      "type": "Feature",
      "properties": {
        "norad_id": 12458,
        "name": "NOVA 1",
        "group": "nnss",
        "lat": 31.343203530546727,
        "lon": 91.59301394620181,
        "alt_km": 1171.046411342898,
        "timestamp": "2025-12-04T09:47:37.789697+00:00",
        "meta_object_name": "NOVA 1",
        "meta_object_id": "1981-044A",
        "meta_epoch": "2025-12-03T21:32:55.161888",
        "meta_mean_motion": 13.23276955,
        "meta_eccentricity": 0.0015609,
        "meta_inclination": 89.8522,
        "meta_ra_of_asc_node": 91.5102,
        "meta_arg_of_pericenter": 125.7622,
        "meta_mean_anomaly": 356.6957,
        "meta_ephemeris_type": 0,
        "meta_classification_type": "U",
        "meta_norad_cat_id": 12458,
        "meta_element_set_no": 999,
        "meta_rev_at_epoch": 15069,
        "meta_bstar": 0.00016146934,
        "meta_mean_motion_dot": 7.7e-07,
        "meta_mean_motion_ddot": 0,
        "tle_line1": "1 12458U 81044A   25337.89786067  .00000077  00000+0  16147-3 0  9993",
        "tle_line2": "2 12458  89.8522  91.5102 0015609 125.7622 356.6957 13.23276955150695"
      },
      "geometry": {
        "type": "Point",
        "coordinates": [
          91.59301394620181,
          31.343203530546727
        ]
      }
    }
  ]
}